{
  "type": "FeatureCollection",
  "features": [
    {
      "type": "Feature",
      "properties": {
        "norad_id": 40730,
        "name": "GPS BIIF-10 (PRN 08)",
        "group": "gps-ops",
        "lat": -48.39601502193085,
        "lon": 148.9810466988965,
        "alt_km": 20411.00687346306,
        "timestamp": "2025-12-18T13:51:49.942455+00:00",
        "meta_object_name": "GPS BIIF-10 (PRN 08)",
        "meta_object_id": "2015-033A",
        "meta_epoch": "2025-12-17T17:40:14.806272",
        "meta_mean_motion": 2.00565457,
        "meta_eccentricity": 0.01112676,
        "meta_inclination": 54.1263,
        "meta_ra_of_asc_node": 274.5673,
        "meta_arg_of_pericenter": 26.9306,
        "meta_mean_anomaly": 333.6659,
        "meta_ephemeris_type": 0,
        "meta_classification_type": "U",
        "meta_norad_cat_id": 40730,
        "meta_element_set_no": 999,
        "meta_rev_at_epoch": 7635,
        "meta_bstar": 0,
        "meta_mean_motion_dot": -4.1e-07,
        "meta_mean_motion_ddot": 0,
        "tle_line1": "1 40730U 15033A   25351.73628248 -.00000041  00000+0  00000+0 0  9996",
        "tle_line2": "2 40730  54.1263 274.5673 0111267  26.9306 333.6659  2.00565457 76355"
      },
      "geometry": {
        "type": "Point",
        "coordinates": [
          148.9810466988965,
          -48.39601502193085
        ]
      }
    },
    {
      "type": "Feature",
      "properties": {
        "norad_id": 41019,
        "name": "GPS BIIF-11 (PRN 10)",
        "group": "gps-ops",
        "lat": -19.196261685820055,
        "lon": -129.05381069302388,
        "alt_km": 19920.756996302298,
        "timestamp": "2025-12-18T13:51:49.942467+00:00",
        "meta_object_name": "GPS BIIF-11 (PRN 10)",
        "meta_object_id": "2015-062A",
        "meta_epoch": "2025-12-18T07:03:43.994016",
        "meta_mean_motion": 2.0056722,
        "meta_eccentricity": 0.01109639,
        "meta_inclination": 56.8362,
        "meta_ra_of_asc_node": 37.7874,
        "meta_arg_of_pericenter": 230.0873,
        "meta_mean_anomaly": 128.9937,
        "meta_ephemeris_type": 0,
        "meta_classification_type": "U",
        "meta_norad_cat_id": 41019,
        "meta_element_set_no": 999,
        "meta_rev_at_epoch": 7420,
        "meta_bstar": 0,
        "meta_mean_motion_dot": -6.9e-07,
        "meta_mean_motion_ddot": 0,
        "tle_line1": "1 41019U 15062A   25352.29425919 -.00000069  00000+0  00000+0 0  9991",
        "tle_line2": "2 41019  56.8362  37.7874 0110963 230.0873 128.9937  2.00567220 74202"
      },
      "geometry": {
        "type": "Point",
        "coordinates": [
          -129.05381069302388,
          -19.196261685820055
        ]
      }
    },
    {
      "type": "Feature",
      "properties": {
        "norad_id": 41328,
        "name": "GPS BIIF-12 (PRN 32)",
        "group": "gps-ops",
        "lat": 29.689374628813187,
        "lon": -106.51406454861088,
        "alt_km": 20221.86340013399,
        "timestamp": "2025-12-18T13:51:49.942478+00:00",
        "meta_object_name": "GPS BIIF-12 (PRN 32)",
        "meta_object_id": "2016-007A",
        "meta_epoch": "2025-12-17T21:04:45.121728",
        "meta_mean_motion": 2.00560498,
        "meta_eccentricity": 0.0092429,
        "meta_inclination": 55.409,
        "meta_ra_of_asc_node": 96.6531,
        "meta_arg_of_pericenter": 243.6958,
        "meta_mean_anomaly": 115.3363,
        "meta_ephemeris_type": 0,
        "meta_classification_type": "U",
        "meta_norad_cat_id": 41328,
        "meta_element_set_no": 999,
        "meta_rev_at_epoch": 7220,
        "meta_bstar": 0,
        "meta_mean_motion_dot": -3.7e-07,
        "meta_mean_motion_ddot": 0,
        "tle_line1": "1 41328U 16007A   25351.87830002 -.00000037  00000+0  00000+0 0  9995",
        "tle_line2": "2 41328  55.4090  96.6531 0092429 243.6958 115.3363  2.00560498 72203"
      },
      "geometry": {
        "type": "Point",
        "coordinates": [
          -106.51406454861088,
          29.689374628813187
        ]
      }
    },
    {
      "type": "Feature",
      "properties": {
        "norad_id": 43873,
        "name": "GPS BIII-1  (PRN 04)",
        "group": "gps-ops",
        "lat": 30.78092240499646,
        "lon": 123.39396750356073,
        "alt_km": 20270.743484908213,
        "timestamp": "2025-12-18T13:51:49.942490+00:00",
        "meta_object_name": "GPS BIII-1  (PRN 04)",
        "meta_object_id": "2018-109A",
        "meta_epoch": "2025-12-15T18:29:34.483200",
        "meta_mean_motion": 2.00553802,
        "meta_eccentricity": 0.00374359,
        "meta_inclination": 55.5688,
        "meta_ra_of_asc_node": 99.4273,
        "meta_arg_of_pericenter": 195.145,
        "meta_mean_anomaly": 336.5518,
        "meta_ephemeris_type": 0,
        "meta_classification_type": "U",
        "meta_norad_cat_id": 43873,
        "meta_element_set_no": 999,
        "meta_rev_at_epoch": 5139,
        "meta_bstar": 0,
        "meta_mean_motion_dot": -3.2e-07,
        "meta_mean_motion_ddot": 0,
        "tle_line1": "1 43873U 18109A   25349.77053800 -.00000032  00000+0  00000+0 0  9991",
        "tle_line2": "2 43873  55.5688  99.4273 0037435 195.1450 336.5518  2.00553802 51399"
      },
      "geometry": {
        "type": "Point",
        "coordinates": [
          123.39396750356073,
          30.78092240499646
        ]
      }
    },
    {
      "type": "Feature",
      "properties": {
        "norad_id": 44506,
        "name": "GPS BIII-2  (PRN 18)",
        "group": "gps-ops",
        "lat": -47.74981060488492,
        "lon": -70.3569557864279,
        "alt_km": 20207.27651278413,
        "timestamp": "2025-12-18T13:51:49.942505+00:00",
        "meta_object_name": "GPS BIII-2  (PRN 18)",
        "meta_object_id": "2019-056A",
        "meta_epoch": "2025-12-18T07:32:42.973728",
        "meta_mean_motion": 2.00566635,
        "meta_eccentricity": 0.00577192,
        "meta_inclination": 55.7194,
        "meta_ra_of_asc_node": 338.3313,
        "meta_arg_of_pericenter": 198.5145,
        "meta_mean_anomaly": 267.0868,
        "meta_ephemeris_type": 0,
        "meta_classification_type": "U",
        "meta_norad_cat_id": 44506,
        "meta_element_set_no": 999,
        "meta_rev_at_epoch": 4644,
        "meta_bstar": 0,
        "meta_mean_motion_dot": -8.5e-07,
        "meta_mean_motion_ddot": 0,
        "tle_line1": "1 44506U 19056A   25352.31438627 -.00000085  00000+0  00000+0 0  9993",
        "tle_line2": "2 44506  55.7194 338.3313 0057719 198.5145 267.0868  2.00566635 46446"
      },
      "geometry": {
        "type": "Point",
        "coordinates": [
          -70.3569557864279,
          -47.74981060488492
        ]
      }
    },
    {
      "type": "Feature",
      "properties": {
        "norad_id": 45854,
        "name": "GPS BIII-3  (PRN 23)",
        "group": "gps-ops",
        "lat": -46.30581121626664,
        "lon": -100.28217079357249,
        "alt_km": 20057.457830759,
        "timestamp": "2025-12-18T13:51:49.942518+00:00",
        "meta_object_name": "GPS BIII-3  (PRN 23)",
        "meta_object_id": "2020-041A",
        "meta_epoch": "2025-12-18T05:27:58.178880",
        "meta_mean_motion": 2.00562003,
        "meta_eccentricity": 0.0060605,
        "meta_inclination": 56.5506,
        "meta_ra_of_asc_node": 35.9719,
        "meta_arg_of_pericenter": 203.6022,
        "meta_mean_anomaly": 143.4254,
        "meta_ephemeris_type": 0,
        "meta_classification_type": "U",
        "meta_norad_cat_id": 45854,
        "meta_element_set_no": 999,
        "meta_rev_at_epoch": 4040,
        "meta_bstar": 0,
        "meta_mean_motion_dot": -7e-07,
        "meta_mean_motion_ddot": 0,
        "tle_line1": "1 45854U 20041A   25352.22775670 -.00000070  00000+0  00000+0 0  9992",
        "tle_line2": "2 45854  56.5506  35.9719 0060605 203.6022 143.4254  2.00562003 40400"
      },
      "geometry": {
        "type": "Point",
        "coordinates": [
          -100.28217079357249,
          -46.30581121626664
        ]
      }
    },
    {
      "type": "Feature",
      "properties": {
        "norad_id": 46826,
        "name": "GPS BIII-4  (PRN 14)",
        "group": "gps-ops",
        "lat": -24.518732658530592,
        "lon": 57.46378934233829,
        "alt_km": 20014.23530728367,
        "timestamp": "2025-12-18T13:51:49.942530+00:00",
        "meta_object_name": "GPS BIII-4  (PRN 14)",
        "meta_object_id": "2020-078A",
        "meta_epoch": "2025-12-16T01:06:13.902336",
        "meta_mean_motion": 2.00566891,
        "meta_eccentricity": 0.00647554,
        "meta_inclination": 54.0145,
        "meta_ra_of_asc_node": 218.2068,
        "meta_arg_of_pericenter": 203.3828,
        "meta_mean_anomaly": 339.3936,
        "meta_ephemeris_type": 0,
        "meta_classification_type": "U",
        "meta_norad_cat_id": 46826,
        "meta_element_set_no": 999,
        "meta_rev_at_epoch": 3783,
        "meta_bstar": 0,
        "meta_mean_motion_dot": 6.7e-07,
        "meta_mean_motion_ddot": 0,
        "tle_line1": "1 46826U 20078A   25350.04599424  .00000067  00000+0  00000+0 0  9996",
        "tle_line2": "2 46826  54.0145 218.2068 0064755 203.3828 339.3936  2.00566891 37831"
      },
      "geometry": {
        "type": "Point",
        "coordinates": [
          57.46378934233829,
          -24.518732658530592
        ]
      }
    }
  ]
}